TRANSPORTER-16 OBJECT AX
1 68461U 26067AX  26130.12376579  .00005073  00000+0  25530-3 0  9990
2 68461  97.4528  89.1229 0003751 167.7030 192.4296 15.17650333  6163
TRANSPORTER-16 OBJECT AY
1 68462U 26067AY  26129.84517881  .00005457  00000+0  27004-3 0  9995
2 68462  97.4530  88.8840 0003768 129.9439 230.2127 15.18207998  6129
GARAI-B (UNAMUNO)       
1 68463U 26067AZ  26130.12558375  .00004436  00000+0  22484-3 0  9995
2 68463  97.4514  89.1115 0003410 168.1797 191.9517 15.17470935  6169
FGN-100-D3              
1 68464U 26067BA  26130.12526697  .00003150  00000+0  16054-3 0  9996
2 68464  97.4496  89.1012 0002852 174.7236 185.4028 15.17490236  6166
HOTSAT-2                
1 68465U 26067BB  26130.19238341  .00002030  00000+0  10498-3 0  9992
2 68465  97.4504  89.1675 0002876 174.7141 185.4123 15.17388093  6177
TRANSPORTER-16 OBJECT BC
1 68466U 26067BC  26130.13864047  .00004547  00000+0  23272-3 0  9994
2 68466  97.4464  89.0664 0005424 193.4273 166.6817 15.17103279  6011
TRANSPORTER-16 OBJECT BD
1 68467U 26067BD  26130.12792970  .00010459  00000+0  51935-3 0  9995
2 68467  97.4392  89.0476 0005961 184.9403 175.1773 15.17850701  6160
ERMIS-1                 
1 68468U 26067BE  26129.87616935  .00005937  00000+0  30291-3 0  9999
2 68468  97.4533  88.8430 0006829 171.3039 188.8314 15.17085749  6124
W-SERIES 6              
1 68469U 26067BF  26130.16892882  .00002735  00000+0  12836-3 0  9999
2 68469  97.4508  89.2076 0013850  96.3732 263.9080 15.20416975  6179
TRANSPORTER-16 OBJECT BG
1 68470U 26067BG  26130.14140388  .00004832  00000+0  24779-3 0  9995
2 68470  97.4455  89.0608 0006579 184.2600 175.8579 15.17002839  6161
LEMUR-2-DELOITTE-3      
1 68471U 26067BH  26130.16903659  .00003355  00000+0  34331-3 0  9990
2 68471  97.7557  88.9652 0004329 150.3579 209.7886 14.91189349  6065
FLYLAB1                 
1 68472U 26067BJ  26129.83839305  .00001934  00000+0  20257-3 0  9992
2 68472  97.7605  88.6504 0004805 145.4837 214.6694 14.90736112  6016
VIGORIDE-7              
1 68473U 26067BK  26129.84352603  .00009912  00000+0  48252-3 0  9994
2 68473  97.4513  88.8764 0003426 148.1630 211.9812 15.18569722  6105
BLACK KITE-2            
1 68474U 26067BL  26130.13378845  .00001247  00000+0  12724-3 0  9993
2 68474  97.7526  88.9977 0003116  44.4746 315.6723 14.92408075  6053
TRANSPORTER-16 OBJECT BM
1 68475U 26067BM  26130.16660205  .00006311  00000+0  63685-3 0  9990
2 68475  97.7496  88.9454 0004018 149.9031 210.2420 14.91422564  5534
LEMUR-2-JULIA-JOEL      
1 68476U 26067BN  26130.13377705  .00002294  00000+0  22914-3 0  9994
2 68476  97.7538  89.0035 0003519  56.3020 303.8535 14.92460777  6056
TRANSPORTER-16 OBJECT BP
1 68477U 26067BP  26130.16692392  .00006445  00000+0  65073-3 0  9995
2 68477  97.7506  88.9464 0004512 163.9841 196.1521 14.91392778  5462
FOSSASAT-2E25           
1 68478U 26067BQ  26130.14119691  .00000423  00000+0  47131-4 0  9996
2 68478  97.7579  89.0091 0003370  67.6467 292.5108 14.92074589  6052
LEMUR-2-PEGGY-2004      
1 68479U 26067BR  26130.13878376  .00003130  00000+0  31193-3 0  9996
2 68479  97.7521  88.9909 0002826  63.9832 296.1678 14.92293525  6051
LEMUR-2-IRINA           
1 68480U 26067BS  26130.12677669  .00001830  00000+0  18286-3 0  9992
2 68480  97.7604  89.0414 0005244  53.0815 307.0884 14.92693282  6051
TORO3                   
1 68481U 26067BT  26130.14264150  .00001286  00000+0  13221-3 0  9991
2 68481  97.7648  89.0381 0004485  84.0684 276.1046 14.92059567  6055
LEMUR-2-SEJONG-3        
1 68482U 26067BU  26130.12682609  .00001789  00000+0  17888-3 0  9994
2 68482  97.7550  89.0177 0004423  41.3286 318.8268 14.92688805  6050
LEMUR-2-CLARA           
1 68483U 26067BV  26130.13374083  .00002697  00000+0  26849-3 0  9996
2 68483  97.7619  89.0402 0004762  66.3182 293.8536 14.92449426  6050
VINDLER 2.2             
1 68484U 26067BW  26130.16668980  .00065914  00000+0  60261-2 0  9998
2 68484  97.7585  89.0498 0002331  91.2579  61.3219 14.94695889  1302
CAPELLA-20 (ACADIA-10)  
1 68485U 26067BX  26130.14254593  .00004437  00000+0  44173-3 0  9996
2 68485  97.7552  89.0007 0003291  77.0923 283.0664 14.92121568  6054
VINDLER 2.3             
1 68486U 26067BY  26130.21518132  .00001016  00000+0  10614-3 0  9990
2 68486  97.7560  89.0577 0002644  87.6196 272.5325 14.91845047  6068
TRANSPORTER-16 OBJECT BZ
1 68487U 26067BZ  26129.86735801  .00002419  00000+0  24179-3 0  9993
2 68487  97.7518  88.7286 0002798  52.9216 307.2259 14.92396472  6014
VINDLER 2.1             
1 68488U 26067CA  26130.15315786  .00001298  00000+0  13382-3 0  9992
2 68488  97.7555  88.9833 0002307 116.0244 244.1213 14.91917005  6058
LEMUR-2-CARROLLEMO      
1 68489U 26067CB  26129.82609212  .00003031  00000+0  30912-3 0  9990
2 68489  97.7515  88.6249 0002361 147.3872 212.7493 14.91400552  6007
MIMIR 1                 
1 68490U 26067CC  26129.89150226  .00001485  00000+0  15476-3 0  9994
2 68490  97.7592  88.7278 0003314 126.3121 233.8404 14.91268964  6016
LEMUR-2-DELOITTE-2      
1 68491U 26067CD  26129.89737022  .00001408  00000+0  14710-3 0  9995
2 68491  97.7544  88.6987 0003397 150.1015 210.0398 14.91257922  6019
LEMUR-2-EMARCHIA        
1 68492U 26067CE  26130.16655256  .00004239  00000+0  43094-3 0  9998
2 68492  97.7544  88.9629 0003911 151.0919 209.0516 14.91305394  6052
LEMUR-2-POLO-11         
1 68493U 26067CF  26130.16527000  .00003732  00000+0  38018-3 0  9991
2 68493  97.7628  89.0031 0005027 132.2816 227.8830 14.91301162  6058
ICEYE-X71               
1 68494U 26067CG  26129.89027269  .00001608  00000+0  16622-3 0  9999
2 68494  97.7589  88.7285 0003261 123.3990 236.7540 14.91484119  6011
GRAVITAS                
1 68495U 26067CH  26129.13944947  .00000325  00000+0  53004-4 0  9999
2 68495  97.7589  87.5582 0004210 121.7051 238.4570 14.76954985  5875
ICEYE-X73               
1 68496U 26067CJ  26130.14375669  .00001656  00000+0  16877-3 0  9996
2 68496  97.7589  89.0106 0003458  80.2564 279.9045 14.92034667  6058
ICEYE-X75               
1 68497U 26067CK  26130.21139356  .00001488  00000+0  15222-3 0  9992
2 68497  97.7564  89.0676 0003059  80.0642 280.0922 14.92012289  6060
IO-1                    
1 68498U 26067CL  26129.82734782  .00002545  00000+0  26073-3 0  9993
2 68498  97.7526  88.6282 0002753 151.6004 208.5365 14.91349855  6005
SERT3                   
1 68499U 26067CM  26129.89029146  .00001218  00000+0  12732-3 0  9995
2 68499  97.7561  88.7153 0002366 123.7816 236.3628 14.91452957  6014
ICEYE-X74               
1 68500U 26067CN  26130.15783235  .00002025  00000+0  20787-3 0  9991
2 68500  97.7594  88.9967 0003377 120.2713 239.8840 14.91487949  6056
TRANSPORTER-16 OBJECT CP
1 68501U 26067CP  26130.16311816  .00002163  00000+0  22257-3 0  9992
2 68501  97.7608  88.9947 0004342 132.7119 227.4466 14.91330098  6051
ICEYE-X76               
1 68502U 26067CQ  26130.15561940  .00001963  00000+0  20112-3 0  9992
2 68502  97.7599  89.0025 0003336 115.6263 244.5301 14.91595471  6058
FLYLAB2                 
1 68503U 26067CR  26129.84349937  .00001489  00000+0  15769-3 0  9992
2 68503  97.7550  88.6182 0005139 170.4011 189.7306 14.90609340  6008
ICEYE-X72               
1 68504U 26067CS  26130.14861909  .00001761  00000+0  17994-3 0  9991
2 68504  97.7598  89.0118 0003444  96.6003 263.5607 14.91851163  6055
GEMS2-AMETHYST          
1 68505U 26067CT  26130.11125632  .00003135  00000+0  32392-3 0  9991
2 68505  97.7586  88.8991 0005919 153.0100 207.1427 14.90841184  6048
STARLINK-37262          
1 68508U 26068A   26129.92748458  .00192170  00000+0  95279-3 0  9990
2 68508  53.1556 202.4257 0001210  40.1387 319.9725 15.80937985  6358
STARLINK-36292          
1 68509U 26068B   26129.93197535  .00040572  00000+0  73324-3 0  9991
2 68509  53.1590 204.6449 0000988  83.9951 276.1171 15.49328866  6320
STARLINK-37260          
1 68510U 26068C   26130.16668980 -.01895397  00000+0 -31342-1 0  9995
2 68510  53.1596 201.7890 0000589  99.9438 265.7154 15.55105085  5585
STARLINK-37280          
1 68511U 26068D   26129.92523652  .00244661  00000+0  12038-2 0  9995
2 68511  53.1557 202.4087 0001454  62.5127 297.6043 15.80954639  6354
STARLINK-37286          
1 68512U 26068E   26129.92448530  .00299999  00000+0  14643-2 0  9995
2 68512  53.1553 202.4042 0000925  61.7629 298.3487 15.80975426  6359
STARLINK-36250          
1 68513U 26068F   26130.14882441  .00047421  00000+0  85469-3 0  9991
2 68513  53.1583 203.8728 0001273  82.8154 277.3000 15.49336391  6358
STARLINK-37251          
1 68514U 26068G   26129.90651120  .00028839  00000+0  66969-3 0  9998
2 68514  53.1580 205.9270 0001085  77.2692 282.8436 15.42158184  6301
STARLINK-36293          
1 68515U 26068H   26129.69707381  .00035010  00000+0  63440-3 0  9996
2 68515  53.1581 206.0298 0001110  90.2160 269.8976 15.49322970  6283
STARLINK-36290          
1 68516U 26068J   26129.92079410  .00039901  00000+0  72135-3 0  9992
2 68516  53.1588 204.5710 0000896  78.8963 281.2146 15.49327215  6325
STARLINK-36298          
1 68517U 26068K   26129.92460161  .00026450  00000+0  61509-3 0  9998
2 68517  53.1588 206.0436 0001391  82.4380 277.6783 15.42163333  6309
STARLINK-36857          
1 68518U 26068L   26130.21638185  .00032483  00000+0  58908-3 0  9998
2 68518  53.1576 203.5823 0001142  89.0712 271.0428 15.49337699  6360
STARLINK-36326          
1 68519U 26068M   26130.21657624  .00026772  00000+0  48734-3 0  9998
2 68519  53.1565 203.5826 0001123  79.6827 280.4309 15.49333643  6360
STARLINK-37126          
1 68520U 26068N   26130.21518066  .00053539  00000+0  96270-3 0  9995
2 68520  53.1578 203.5745 0001346  65.9029 294.2120 15.49350232  6362
STARLINK-36347          
1 68521U 26068P   26130.16668980 -.02278239  00000+0 -75422-1 0  9995
2 68521  53.1601 203.8163 0001255  82.1580   0.0303 15.34447143  6008
